[
    {
        "Altitude(m)": 622200.0763701937,
        "Argument of Periapsis(deg)": 0.0,
        "Eccentricity": 0.0,
        "Inclination(deg)": 60.0,
        "Latitude(deg)": -52.162453134884124,
        "Longitude(deg)": 112.36072194627101,
        "Mean Anomaly(deg)": -65.45449999999992,
        "RAAN(deg)": 260.0,
        "Satellite Name": "Test1 1162",
        "Satellite Number": 1162,
        "Semi-Major Axis(m)": 6980739.136638005,
        "Time(s)": 0
    },
    {
        "Altitude(m)": 622058.2441421177,
        "Argument of Periapsis(deg)": 0.00010418945913296404,
        "Eccentricity": 0.0,
        "Inclination(deg)": 60.0,
        "Latitude(deg)": -51.799203109282345,
        "Longitude(deg)": 113.12877878691512,
        "Mean Anomaly(deg)": -64.83439385453808,
        "RAAN(deg)": 259.99957995086027,
        "Satellite Name": "Test1 1162",
        "Satellite Number": 1162,
        "Semi-Major Axis(m)": 6980739.136638005,
        "Time(s)": 10
    }
]